<span class="comment">% Rotating position vectors to get it in ECEF frame (at every point in time)</span>
<span class="keyword">for</span> iter = 1 : length(t) <span class="comment">% Start at t = 2 because we already have initial conditions</span>
    g = gamma0 - (15/3600)*t(iter);
    R3g = [cosd(g), -sind(g), 0;
           sind(g),  cosd(g), 0;
           0      ,  0      , 1 ]; <span class="comment">% Rotation around axis 3 by g (GMST angle) degrees</span>
    R_EI = R_IP*R3g;
    r(iter,:) = R_EI*r(iter,:)';
<span class="keyword">end</span>

<span class="comment">% Converting position to lattitude and longitude</span>
longitude3 = zeros(length(r),1);
latitude3 = zeros(length(r),1);
<span class="keyword">for</span> iter = 1 : length(r)
    <span class="comment">%longitude(iter) = (180/PI)*atan(r(iter, 2) / r(iter, 1)); % longtude equation using ECEF coords</span>
    longitude3(iter) = (180/PI)*atan2(r(iter, 2), r(iter, 1));
    latitude3(iter) = (180/PI)*atan(r(iter, 3) / sqrt(r(iter, 1)^2 + r(iter, 2)^2 )); <span class="comment">% lattitude equation using ECEF coords</span>
<span class="keyword">end</span>

figure(3)
hold <span class="string">on</span>
load(<span class="string">'topo.mat'</span>,<span class="string">'topo'</span>);
topoplot = [topo(:,181:360),topo(:,1:180)];
contour(-180:179,-90:89,topoplot,[0,0],<span class="string">'black'</span>);
grid <span class="string">on</span>
grid <span class="string">minor</span>
plot(longitude3,latitude3,<span class="string">'.'</span>,<span class="string">'LineWidth'</span>,2)
xlabel(<span class="string">"longtitude (degrees)"</span>)
ylabel(<span class="string">"latitude (degrees)"</span>)
title(<span class="string">'Ground Path for MOLNIYA 1-91 '</span>)
hold <span class="string">off</span>
</pre><img vspace="5" hspace="5" src="NL_HW1_Problem4_04.png" alt=""> <img vspace="5" hspace="5" src="NL_HW1_Problem4_05.png" alt=""> <h2 id="5">COSMOS 2569 (703K)</h2><p>1 57517U 23114A   24258.24908306  .00000071  00000+0  00000+0 0  9995 2 57517  64.9566  94.2948 0008739 295.2308  64.7601  2.13103887  8606</p><pre class="codeinput">clear;

MU = 3.986 * (10^5); <span class="comment">% km^3 / s^2</span>
PI = 3.141592654;

<span class="comment">% Orbit Data from the TLE</span>
n = 2.13103887; <span class="comment">% Revolutions (times 360 degrees) per day</span>
e = 0.0008739; <span class="comment">% Eccentricity</span>
M0 = 64.7601; <span class="comment">% Initial Mean Anomaly</span>
w = 295.2308; <span class="comment">% Argument of perigee</span>
i = 64.9566; <span class="comment">% Inclination</span>
W = 94.2948; <span class="comment">% Right ascension of ascending node</span>
ERA = [05, 37, 27]; <span class="comment">% GMST based on the provided website using epoch data</span>

T = 86400/n; <span class="comment">% Period of orbit (in seconds per 1 revolution)</span>
a = ((T/(2*PI))^2 * MU)^(1/3);
t = linspace(0,T,500); <span class="comment">% Incremental time</span>
t0 = t(1);
M = M0 + n.*(t/86400).*360; <span class="comment">% Mean anomaly at every point in the orbit</span>

<span class="comment">% Converting M (mean anomaly) to E (eccentric anomaly) and f (true anomaly)</span>
E = zeros(size(M));
<span class="keyword">for</span> iter = 1 : length(M)
    E(iter) = mean2true(M(iter), e);
<span class="keyword">end</span>
E0 = E(1);
f0 = 2*atan( sqrt((1+e)/(1-e)) * tan(E(1)/2) ) * (180/PI);

<span class="comment">% Getting initial radius and speed using derived equations</span>
p = a*(1-e^2);
r0 = p / (1+e*cosd(f0));
v0 = sqrt(2*MU/r0 - MU/a);

<span class="comment">% Calculating Langrange Coefficients using Block 2 (elliptic orbit)</span>
F = zeros(1,length(E));
G = zeros(1,length(E));
<span class="keyword">for</span> iter = 1 : length(E)
    F(iter) = 1 - (a/r0).*(1-cosd(E(iter)-E0));
    G(iter) = (t(iter)-t0) - sqrt(a^3/MU).*((E(iter)-E0).*(PI/180)-sind(E(iter)-E0));
<span class="keyword">end</span>

<span class="comment">% Getting initial position and velocity vectors in perifocal frame</span>
r = zeros(length(t), 3);
r(1,:) = [r0*cosd(f0), r0*sind(f0), 0]; <span class="comment">% e, p, h hat directions</span>
v = zeros(length(t), 3);
v(1,:) = [-sqrt(MU/p)*sind(f0), sqrt(MU/p)*(e+cosd(f0)), 0]; <span class="comment">% e, p, h hat directions</span>

<span class="comment">% Calculating 1-orbit-worth of future positions</span>
<span class="keyword">for</span> iter = 2 : length(t) <span class="comment">% Start at t = 2 because we already have initial conditions</span>
    r(iter,:) = F(iter)*r(1,:) + G(iter)*v(1,:);
<span class="keyword">end</span>

<span class="comment">% Rotation Matrices</span>
R3W = [cosd(W), -sind(W), 0;
       sind(W),  cosd(W), 0;
       0      ,  0      , 1 ]; <span class="comment">% Rotation around axis 3 by W (Right ascension of ascending node) degrees</span>
R1i = [1, 0      ,        0;
       0, cosd(i), -sind(i);
       0, sind(i),  cosd(i) ]; <span class="comment">% Rotation around axis 1 by i (inclination) degrees</span>
R3w = [cosd(w), -sind(w), 0;
       sind(w),  cosd(w), 0;
       0      ,  0      , 1 ]; <span class="comment">% Rotation around axis 3 by w (argument of perigee) degrees</span>

R_IP = R3w*(R1i*R3W);
ERA_degrees = [ERA(1)*15, ERA(2)*15/60, ERA(3)*15/60/60];
gamma0 = sum(ERA_degrees);

<span class="comment">% Rotating position vectors to get it in ECEF frame (at every point in time)</span>
<span class="keyword">for</span> iter = 1 : length(t) <span class="comment">% Start at t = 2 because we already have initial conditions</span>
    g = gamma0 - (15/3600)*t(iter);
    R3g = [cosd(g), -sind(g), 0;
           sind(g),  cosd(g), 0;
           0      ,  0      , 1 ]; <span class="comment">% Rotation around axis 3 by g (GMST angle) degrees</span>
    R_EI = R_IP*R3g;
    r(iter,:) = R_EI*r(iter,:)';
<span class="keyword">end</span>

<span class="comment">% Converting position to lattitude and longitude</span>
longitude4 = zeros(length(r),1);
latitude4 = zeros(length(r),1);
<span class="keyword">for</span> iter = 1 : length(r)
    <span class="comment">%longitude(iter) = (180/PI)*atan(r(iter, 2) / r(iter, 1)); % longtude equation using ECEF coords</span>
    longitude4(iter) = (180/PI)*atan2(r(iter, 2), r(iter, 1));
    latitude4(iter) = (180/PI)*atan(r(iter, 3) / sqrt(r(iter, 1)^2 + r(iter, 2)^2 )); <span class="comment">% lattitude equation using ECEF coords</span>
<span class="keyword">end</span>

figure(4)
hold <span class="string">on</span>
load(<span class="string">'topo.mat'</span>,<span class="string">'topo'</span>);
topoplot = [topo(:,181:360),topo(:,1:180)];
contour(-180:179,-90:89,topoplot,[0,0],<span class="string">'black'</span>);
grid <span class="string">on</span>
grid <span class="string">minor</span>
plot(longitude4,latitude4,<span class="string">'.'</span>,<span class="string">'LineWidth'</span>,2)
xlabel(<span class="string">"longtitude (degrees)"</span>)
ylabel(<span class="string">"latitude (degrees)"</span>)
title(<span class="string">'Ground Path for COSMOS 2569 (703K)'</span>)
hold <span class="string">off</span>
</pre><img vspace="5" hspace="5" src="NL_HW1_Problem4_06.png" alt=""> <h2 id="6">STARLETTE</h2><p>1 07646U 75010A   24258.93756172 -.00000102  00000+0  34095-4 0  9995 2 07646  49.8222 111.7558 0205657 107.9496 254.3932 13.82332614505978</p><pre class="codeinput">clear;

MU = 3.986 * (10^5); <span class="comment">% km^3 / s^2</span>
PI = 3.141592654;

<span class="comment">% Orbit Data from the TLE</span>
n = 13.82332614; <span class="comment">% Revolutions (times 360 degrees) per day</span>
e = 0.0205657; <span class="comment">% Eccentricity</span>
M0 = 254.3932; <span class="comment">% Initial Mean Anomaly</span>
w = 107.9496; <span class="comment">% Argument of perigee</span>
i = 49.8222; <span class="comment">% Inclination</span>
W = 111.7558; <span class="comment">% Right ascension of ascending node</span>
ERA = [22, 11, 35]; <span class="comment">% GMST based on the provided website using epoch data</span>

T = 86400/n; <span class="comment">% Period of orbit (in seconds per 1 revolution)</span>
a = ((T/(2*PI))^2 * MU)^(1/3);
t = linspace(0,T,500); <span class="comment">% Incremental time</span>
t0 = t(1);
M = M0 + n.*(t/86400).*360; <span class="comment">% Mean anomaly at every point in the orbit</span>

<span class="comment">% Converting M (mean anomaly) to E (eccentric anomaly) and f (true anomaly)</span>
E = zeros(size(M));
<span class="keyword">for</span> iter = 1 : length(M)
    E(iter) = mean2true(M(iter), e);
<span class="keyword">end</span>
E0 = E(1);
f0 = 2*atan( sqrt((1+e)/(1-e)) * tan(E(1)/2) ) * (180/PI);

<span class="comment">% Getting initial radius and speed using derived equations</span>
p = a*(1-e^2);
r0 = p / (1+e*cosd(f0));
v0 = sqrt(2*MU/r0 - MU/a);

<span class="comment">% Calculating Langrange Coefficients using Block 2 (elliptic orbit)</span>
F = zeros(1,length(E));
G = zeros(1,length(E));
<span class="keyword">for</span> iter = 1 : length(E)
    F(iter) = 1 - (a/r0).*(1-cosd(E(iter)-E0));
    G(iter) = (t(iter)-t0) - sqrt(a^3/MU).*((E(iter)-E0).*(PI/180)-sind(E(iter)-E0));
<span class="keyword">end</span>

<span class="comment">% Getting initial position and velocity vectors in perifocal frame</span>
r = zeros(length(t), 3);
r(1,:) = [r0*cosd(f0), r0*sind(f0), 0]; <span class="comment">% e, p, h hat directions</span>
v = zeros(length(t), 3);
v(1,:) = [-sqrt(MU/p)*sind(f0), sqrt(MU/p)*(e+cosd(f0)), 0]; <span class="comment">% e, p, h hat directions</span>

<span class="comment">% Calculating 1-orbit-worth of future positions</span>
<span class="keyword">for</span> iter = 2 : length(t) <span class="comment">% Start at t = 2 because we already have initial conditions</span>
    r(iter,:) = F(iter)*r(1,:) + G(iter)*v(1,:);
<span class="keyword">end</span>

